STARLINK-36622          
1 67667U 26022V   26049.83335647 -.00071109  00000+0 -47945-3 0  9995
2 67667  97.2848  82.9226 0001402  71.7140 277.8642 15.75208751  3862
STARLINK-36625          
1 67668U 26022W   26049.83335647 -.00133465  00000+0 -90610-3 0  9997
2 67668  97.2848  82.9256 0001464  93.6581 263.9211 15.75236847  3861
STARLINK-36639          
1 67669U 26022X   26049.83335647 -.00153286  00000+0 -10429-2 0  9990
2 67669  97.2851  82.9289 0001436  93.0245 274.5487 15.75244209  3866
STARLINK-36596          
1 67670U 26022Y   26049.83335647 -.00173263  00000+0 -11792-2 0  9993
2 67670  97.2854  82.9341 0001671  98.5542 278.9920 15.75290717  3866
STARLINK-36297          
1 67671U 26022Z   26049.83335647 -.00137241  00000+0 -93186-3 0  9998
2 67671  97.2855  82.9387 0001429  82.0282 307.5473 15.75244695  3864
STARLINK-36616          
1 67672U 26022AA  26049.83335647 -.00123678  00000+0 -83881-3 0  9999
2 67672  97.2855  82.9350 0001383  82.6199 298.9569 15.75232368  3860
COSMOS 2600             
1 67674U 26023A   26049.87760185  .00065496  00000+0  30922-3 0  9994
2 67674  96.6479 126.1074 0001266  52.3669 307.7716 15.82880627  2077
2026-023B               
1 67675U 26023B   26049.92602940  .00007425  00000+0  32153-3 0  9991
2 67675  96.6394 125.0492 0017976 197.0925 162.9710 15.22500704  2000
2026-023C               
1 67676U 26023C   26049.92550826  .00010418  00000+0  44862-3 0  9993
2 67676  96.6429 125.0642 0019190 186.7113 173.3872 15.22581097  2167
2026-023D               
1 67677U 26023D   26049.79507608  .00009723  00000+0  42066-3 0  9990
2 67677  96.6461 124.9325 0019315 192.4321 167.6444 15.22437836  1974
2026-023E               
1 67678U 26023E   26049.92574854  .00010467  00000+0  45106-3 0  9998
2 67678  96.6354 125.0473 0019160 191.2536 168.8277 15.22556836  1996
2026-023F               
1 67679U 26023F   26049.92454992  .00011107  00000+0  47597-3 0  9997
2 67679  96.6360 127.5448 0021086 186.1236 173.9749 15.22695996  1984
