CCSDS_OMM_VERS = 2.0
CREATION_DATE  = 
ORIGINATOR     = 

OBJECT_NAME    = STARLINK-36622
OBJECT_ID      = 2026-022V
CENTER_NAME    = EARTH
REF_FRAME      = TEME
TIME_SYSTEM    = UTC
MEAN_ELEMENT_THEORY = SGP/SGP4

EPOCH          = 2026-02-18T20:00:01.999008
MEAN_MOTION    = 15.75208751
ECCENTRICITY   = .0001402
INCLINATION    = 97.2848
RA_OF_ASC_NODE = 82.9226
ARG_OF_PERICENTER = 71.7140
MEAN_ANOMALY   = 277.8642

EPHEMERIS_TYPE = 0
CLASSIFICATION_TYPE = U
NORAD_CAT_ID   = 67667
ELEMENT_SET_NO = 999
REV_AT_EPOCH   = 386
BSTAR          = -.47945E-3
MEAN_MOTION_DOT = -.71109E-3
MEAN_MOTION_DDOT = 0

CCSDS_OMM_VERS = 2.0
CREATION_DATE  = 
ORIGINATOR     = 

OBJECT_NAME    = STARLINK-36625
OBJECT_ID      = 2026-022W
CENTER_NAME    = EARTH
REF_FRAME      = TEME
TIME_SYSTEM    = UTC
MEAN_ELEMENT_THEORY = SGP/SGP4

EPOCH          = 2026-02-18T20:00:01.999008
MEAN_MOTION    = 15.75236847
ECCENTRICITY   = .0001464
INCLINATION    = 97.2848
RA_OF_ASC_NODE = 82.9256
ARG_OF_PERICENTER = 93.6581
MEAN_ANOMALY   = 263.9211

EPHEMERIS_TYPE = 0
CLASSIFICATION_TYPE = U
NORAD_CAT_ID   = 67668
ELEMENT_SET_NO = 999
REV_AT_EPOCH   = 386
BSTAR          = -.9061E-3
MEAN_MOTION_DOT = -.133465E-2
MEAN_MOTION_DDOT = 0

CCSDS_OMM_VERS = 2.0
CREATION_DATE  = 
ORIGINATOR     = 

OBJECT_NAME    = STARLINK-36639
OBJECT_ID      = 2026-022X
CENTER_NAME    = EARTH
REF_FRAME      = TEME
TIME_SYSTEM    = UTC
MEAN_ELEMENT_THEORY = SGP/SGP4

EPOCH          = 2026-02-18T20:00:01.999008
MEAN_MOTION    = 15.75244209
ECCENTRICITY   = .0001436
INCLINATION    = 97.2851
RA_OF_ASC_NODE = 82.9289
ARG_OF_PERICENTER = 93.0245
MEAN_ANOMALY   = 274.5487

EPHEMERIS_TYPE = 0
CLASSIFICATION_TYPE = U
NORAD_CAT_ID   = 67669
ELEMENT_SET_NO = 999
REV_AT_EPOCH   = 386
BSTAR          = -.10429E-2
MEAN_MOTION_DOT = -.153286E-2
MEAN_MOTION_DDOT = 0

CCSDS_OMM_VERS = 2.0
CREATION_DATE  = 
ORIGINATOR     = 

OBJECT_NAME    = STARLINK-36596
OBJECT_ID      = 2026-022Y
CENTER_NAME    = EARTH
REF_FRAME      = TEME
TIME_SYSTEM    = UTC
MEAN_ELEMENT_THEORY = SGP/SGP4

EPOCH          = 2026-02-18T20:00:01.999008
MEAN_MOTION    = 15.75290717
ECCENTRICITY   = .0001671
INCLINATION    = 97.2854
RA_OF_ASC_NODE = 82.9341
ARG_OF_PERICENTER = 98.5542
MEAN_ANOMALY   = 278.9920

EPHEMERIS_TYPE = 0
CLASSIFICATION_TYPE = U
NORAD_CAT_ID   = 67670
ELEMENT_SET_NO = 999
REV_AT_EPOCH   = 386
BSTAR          = -.11792E-2
MEAN_MOTION_DOT = -.173263E-2
MEAN_MOTION_DDOT = 0

CCSDS_OMM_VERS = 2.0
CREATION_DATE  = 
ORIGINATOR     = 

OBJECT_NAME    = STARLINK-36297
OBJECT_ID      = 2026-022Z
CENTER_NAME    = EARTH
REF_FRAME      = TEME
TIME_SYSTEM    = UTC
MEAN_ELEMENT_THEORY = SGP/SGP4

EPOCH          = 2026-02-18T20:00:01.999008
MEAN_MOTION    = 15.75244695
ECCENTRICITY   = .0001429
INCLINATION    = 97.2855
RA_OF_ASC_NODE = 82.9387
ARG_OF_PERICENTER = 82.0282
MEAN_ANOMALY   = 307.5473

EPHEMERIS_TYPE = 0
CLASSIFICATION_TYPE = U
NORAD_CAT_ID   = 67671
ELEMENT_SET_NO = 999
REV_AT_EPOCH   = 386
BSTAR          = -.93186E-3
MEAN_MOTION_DOT = -.137241E-2
MEAN_MOTION_DDOT = 0

CCSDS_OMM_VERS = 2.0
CREATION_DATE  = 
ORIGINATOR     = 

OBJECT_NAME    = STARLINK-36616
OBJECT_ID      = 2026-022AA
CENTER_NAME    = EARTH
REF_FRAME      = TEME
TIME_SYSTEM    = UTC
MEAN_ELEMENT_THEORY = SGP/SGP4

EPOCH          = 2026-02-18T20:00:01.999008
MEAN_MOTION    = 15.75232368
ECCENTRICITY   = .0001383
INCLINATION    = 97.2855
RA_OF_ASC_NODE = 82.9350
ARG_OF_PERICENTER = 82.6199
MEAN_ANOMALY   = 298.9569

EPHEMERIS_TYPE = 0
CLASSIFICATION_TYPE = U
NORAD_CAT_ID   = 67672
ELEMENT_SET_NO = 999
REV_AT_EPOCH   = 386
BSTAR          = -.83881E-3
MEAN_MOTION_DOT = -.123678E-2
MEAN_MOTION_DDOT = 0

CCSDS_OMM_VERS = 2.0
CREATION_DATE  = 
ORIGINATOR     = 

OBJECT_NAME    = COSMOS 2600
OBJECT_ID      = 2026-023A
CENTER_NAME    = EARTH
REF_FRAME      = TEME
TIME_SYSTEM    = UTC
MEAN_ELEMENT_THEORY = SGP/SGP4

EPOCH          = 2026-02-18T21:03:44.799840
MEAN_MOTION    = 15.82880627
ECCENTRICITY   = .0001266
INCLINATION    = 96.6479
RA_OF_ASC_NODE = 126.1074
ARG_OF_PERICENTER = 52.3669
MEAN_ANOMALY   = 307.7716

EPHEMERIS_TYPE = 0
CLASSIFICATION_TYPE = U
NORAD_CAT_ID   = 67674
ELEMENT_SET_NO = 999
REV_AT_EPOCH   = 207
BSTAR          = .30922E-3
MEAN_MOTION_DOT = .65496E-3
MEAN_MOTION_DDOT = 0

CCSDS_OMM_VERS = 2.0
CREATION_DATE  = 
ORIGINATOR     = 

OBJECT_NAME    = 2026-023B
OBJECT_ID      = 2026-023B
CENTER_NAME    = EARTH
REF_FRAME      = TEME
TIME_SYSTEM    = UTC
MEAN_ELEMENT_THEORY = SGP/SGP4

EPOCH          = 2026-02-18T22:13:28.940160
MEAN_MOTION    = 15.22500704
ECCENTRICITY   = .0017976
INCLINATION    = 96.6394
RA_OF_ASC_NODE = 125.0492
ARG_OF_PERICENTER = 197.0925
MEAN_ANOMALY   = 162.9710

EPHEMERIS_TYPE = 0
CLASSIFICATION_TYPE = U
NORAD_CAT_ID   = 67675
ELEMENT_SET_NO = 999
REV_AT_EPOCH   = 200
BSTAR          = .32153E-3
MEAN_MOTION_DOT = .7425E-4
MEAN_MOTION_DDOT = 0

CCSDS_OMM_VERS = 2.0
CREATION_DATE  = 
ORIGINATOR     = 

OBJECT_NAME    = 2026-023C
OBJECT_ID      = 2026-023C
CENTER_NAME    = EARTH
REF_FRAME      = TEME
TIME_SYSTEM    = UTC
MEAN_ELEMENT_THEORY = SGP/SGP4

EPOCH          = 2026-02-18T22:12:43.913664
MEAN_MOTION    = 15.22581097
ECCENTRICITY   = .001919
INCLINATION    = 96.6429
RA_OF_ASC_NODE = 125.0642
ARG_OF_PERICENTER = 186.7113
MEAN_ANOMALY   = 173.3872

EPHEMERIS_TYPE = 0
CLASSIFICATION_TYPE = U
NORAD_CAT_ID   = 67676
ELEMENT_SET_NO = 999
REV_AT_EPOCH   = 216
BSTAR          = .44862E-3
MEAN_MOTION_DOT = .10418E-3
MEAN_MOTION_DDOT = 0

CCSDS_OMM_VERS = 2.0
CREATION_DATE  = 
ORIGINATOR     = 

OBJECT_NAME    = 2026-023D
OBJECT_ID      = 2026-023D
CENTER_NAME    = EARTH
REF_FRAME      = TEME
TIME_SYSTEM    = UTC
MEAN_ELEMENT_THEORY = SGP/SGP4

EPOCH          = 2026-02-18T19:04:54.573312
MEAN_MOTION    = 15.22437836
ECCENTRICITY   = .0019315
INCLINATION    = 96.6461
RA_OF_ASC_NODE = 124.9325
ARG_OF_PERICENTER = 192.4321
MEAN_ANOMALY   = 167.6444

EPHEMERIS_TYPE = 0
CLASSIFICATION_TYPE = U
NORAD_CAT_ID   = 67677
ELEMENT_SET_NO = 999
REV_AT_EPOCH   = 197
BSTAR          = .42066E-3
MEAN_MOTION_DOT = .9723E-4
MEAN_MOTION_DDOT = 0

CCSDS_OMM_VERS = 2.0
CREATION_DATE  = 
ORIGINATOR     = 

OBJECT_NAME    = 2026-023E
OBJECT_ID      = 2026-023E
CENTER_NAME    = EARTH
REF_FRAME      = TEME
TIME_SYSTEM    = UTC
MEAN_ELEMENT_THEORY = SGP/SGP4

EPOCH          = 2026-02-18T22:13:04.673856
MEAN_MOTION    = 15.22556836
ECCENTRICITY   = .001916
INCLINATION    = 96.6354
RA_OF_ASC_NODE = 125.0473
ARG_OF_PERICENTER = 191.2536
MEAN_ANOMALY   = 168.8277

EPHEMERIS_TYPE = 0
CLASSIFICATION_TYPE = U
NORAD_CAT_ID   = 67678
ELEMENT_SET_NO = 999
REV_AT_EPOCH   = 199
BSTAR          = .45106E-3
MEAN_MOTION_DOT = .10467E-3
MEAN_MOTION_DDOT = 0

CCSDS_OMM_VERS = 2.0
CREATION_DATE  = 
ORIGINATOR     = 

OBJECT_NAME    = 2026-023F
OBJECT_ID      = 2026-023F
CENTER_NAME    = EARTH
REF_FRAME      = TEME
TIME_SYSTEM    = UTC
MEAN_ELEMENT_THEORY = SGP/SGP4

EPOCH          = 2026-02-18T22:11:21.113088
MEAN_MOTION    = 15.22695996
ECCENTRICITY   = .0021086
INCLINATION    = 96.6360
RA_OF_ASC_NODE = 127.5448
ARG_OF_PERICENTER = 186.1236
MEAN_ANOMALY   = 173.9749

EPHEMERIS_TYPE = 0
CLASSIFICATION_TYPE = U
NORAD_CAT_ID   = 67679
ELEMENT_SET_NO = 999
REV_AT_EPOCH   = 198
BSTAR          = .47597E-3
MEAN_MOTION_DOT = .11107E-3
MEAN_MOTION_DDOT = 0

